      2.10          N: GNSS NAV DATA                        RINEX VERSION / TYPE
fic2rin                                 06/29/2024 00:59:02 PGM / RUN BY / DATE
                                                            END OF HEADER
6  24  6 28  1 59 44.0  .193804502487D-03 -.219415596803D-10  .000000000000D+00
     .140000000000D+02  .380000000000D+02  .349764569098D-08  .161701684461D+01
     .198930501938D-05  .293421838433D-02  .105239450932D-04  .515365142059D+04
     .439184000000D+06  .484287738800D-07  .153347241215D+01  .763684511185D-07
     .989524945412D+00  .190718750000D+03 -.699711770170D+00 -.762067457454D-08
     .137505727665D-09  .100000000000D+01  .232000000000D+04  .000000000000D+00
     .240000000000D+01  .000000000000D+00  .372529029846D-08  .140000000000D+02
     .432000000000D+06  .400000000000D+01
2  24  6 28  2  0  0.0 -.409544911236D-03  .716227077646D-11  .000000000000D+00
     .670000000000D+02  .305937500000D+02  .402373903345D-08 -.248806211896D+01
     .172294676304D-05  .159901853185D-01  .923313200474D-05  .515370164871D+04
     .439200000000D+06  .143423676491D-06  .143443870839D+01  .216066837311D-06
     .967133870928D+00  .198937500000D+03 -.116925168752D+01 -.768210570482D-08
     .910752222200D-10  .100000000000D+01  .232000000000D+04  .000000000000D+00
     .240000000000D+01  .000000000000D+00 -.176951289177D-07  .670000000000D+02
     .432000000000D+06  .400000000000D+01
1  24  6 28  2  0  0.0  .252360943705D-03 -.659383658785D-11  .000000000000D+00
     .710000000000D+02  .516875000000D+02  .611132598983D-08 -.126887255832D+01
     .273808836937D-05  .133725530468D-01  .635720789433D-05  .515377140617D+04
     .439200000000D+06  .240281224251D-06 -.559427764492D+00  .245869159698D-06
     .954262242841D+00  .253468750000D+03  .103172613823D+01 -.828391648694D-08
    -.303584074067D-10  .100000000000D+01  .232000000000D+04  .000000000000D+00
     .340000000000D+01  .630000000000D+02 -.195577740669D-07  .710000000000D+02
     .432000000000D+06  .400000000000D+01
3  24  6 28  2  0  0.0  .433671753854D-03  .171667124960D-10  .000000000000D+00
     .230000000000D+02  .181562500000D+02  .425946313802D-08  .248090867192D+00
     .732019543648D-06  .564182864036D-02  .511854887009D-05  .515370117569D+04
     .439200000000D+06 -.353902578354D-07  .257000869378D+01  .894069671631D-07
     .985009872586D+00  .296781250000D+03  .111085188662D+01 -.817319758934D-08
     .301441127661D-09  .100000000000D+01  .232000000000D+04  .000000000000D+00
     .240000000000D+01  .000000000000D+00  .139698386192D-08  .230000000000D+02
     .432000000000D+06  .400000000000D+01
8  24  6 28  2  0  0.0  .250031705946D-03  .172803993337D-10  .000000000000D+00
     .140000000000D+02 -.104687500000D+02  .463412160119D-08 -.269787983810D+01
    -.564381480217D-06  .947830372024D-02  .667199492455D-05  .515365061188D+04
     .439200000000D+06 -.856816768646D-07  .436678640161D+00 -.121071934700D-06
     .952961016709D+00  .247625000000D+03  .365971635685D+00 -.817105464294D-08
    -.302869758598D-09  .100000000000D+01  .232000000000D+04  .000000000000D+00
     .240000000000D+01  .000000000000D+00  .465661287308D-08  .140000000000D+02
     .432000000000D+06  .400000000000D+01
5  24  6 28  2  0  0.0 -.177843961865D-03 -.136424205266D-11  .000000000000D+00
     .290000000000D+02  .226562500000D+02  .449625871579D-08 -.234314359174D+01
     .100769102573D-05  .593667943031D-02  .487826764584D-05  .515363279343D+04
     .439200000000D+06  .912696123123D-07  .251825621708D+01 -.372529029846D-08
     .971929178877D+00  .284156250000D+03  .127483497354D+01 -.817962642856D-08
     .463233581252D-09  .100000000000D+01  .232000000000D+04  .000000000000D+00
     .240000000000D+01  .000000000000D+00 -.107102096081D-07  .290000000000D+02
     .432000000000D+06  .400000000000D+01
4  24  6 28  2  0  0.0  .392393209040D-03  .795807864051D-11  .000000000000D+00
     .223000000000D+03 -.750000000000D+02  .465555106525D-08 -.303326060595D+01
    -.383891165257D-05  .287724228110D-02  .751204788685D-05  .515373359299D+04
     .439200000000D+06 -.875443220139D-07 -.263522556859D+01 -.149011611938D-07
     .965350962925D+00  .240156250000D+03 -.296035303328D+01 -.807997942072D-08
    -.141077305007D-09  .100000000000D+01  .232000000000D+04  .000000000000D+00
     .240000000000D+01  .000000000000D+00 -.465661287308D-08  .223000000000D+03
     .432000000000D+06  .400000000000D+01
13 24  6 28 19 59 44.0  .661078374833D-03  .261479726760D-11  .000000000000D+00
     .900000000000D+01 -.559062500000D+02  .456269005435D-08  .192137793847D+00
    -.274740159512D-05  .821342109703D-02  .692345201969D-05  .515365641022D+04
     .503984000000D+06 -.372529029846D-07 -.252915494214D+01  .502914190292D-07
     .971781058422D+00  .248468750000D+03  .930224602857D+00 -.827070165078D-08
    -.318941856637D-09  .100000000000D+01  .232000000000D+04  .000000000000D+00
     .240000000000D+01  .000000000000D+00 -.111758708954D-07  .900000000000D+01
     .500400000000D+06  .400000000000D+01
3  24  6 28 19 59 28.0  .434787012637D-03  .171667124960D-10  .000000000000D+00
     .210000000000D+02  .115312500000D+02  .425053419467D-08 -.287174753478D+01
     .650063157082D-06  .564694066998D-02  .711530447006D-05  .515370328331D+04
     .503968000000D+06  .184401869774D-06  .256948982600D+01 -.163912773132D-06
     .985028233671D+00  .252562500000D+03  .111109244594D+01 -.796318884164D-08
     .359657838335D-09  .100000000000D+01  .232000000000D+04  .000000000000D+00
     .240000000000D+01  .000000000000D+00  .139698386192D-08  .210000000000D+02
     .503520000000D+06  .400000000000D+01
8  24  6 28 19 59 28.0  .251150224358D-03  .172803993337D-10  .000000000000D+00
     .480000000000D+02 -.843750000000D+01  .493484841339D-08  .465632673824D+00
    -.389292836189D-06  .947745493613D-02  .514090061188D-05  .515364672089D+04
     .503968000000D+06  .949949026108D-07  .436133673918D+00  .197440385818D-06
     .952939880468D+00  .277156250000D+03  .366406814315D+00 -.854999899892D-08
    -.189293599124D-09  .100000000000D+01  .232000000000D+04  .000000000000D+00
     .240000000000D+01  .000000000000D+00  .465661287308D-08  .480000000000D+02
     .503940000000D+06  .400000000000D+01
3  24  6 28 21 59 28.0  .434910878539D-03  .171667124960D-10  .000000000000D+00
     .480000000000D+02  .185937500000D+02  .430303638159D-08 -.182177269164D+01
     .102445483208D-05  .564788328484D-02  .684708356857D-05  .515370063019D+04
     .511168000000D+06  .128522515297D-06  .256943200416D+01  .149011611938D-07
     .985031468183D+00  .259937500000D+03  .111127975651D+01 -.794854537453D-08
     .478948521557D-09  .100000000000D+01  .232000000000D+04  .000000000000D+00
     .240000000000D+01  .000000000000D+00  .139698386192D-08  .480000000000D+02
     .504000000000D+06  .400000000000D+01
8  24  6 28 21 59 28.0  .251274555922D-03  .172803993337D-10  .000000000000D+00
     .110000000000D+03 -.778125000000D+01  .487091717897D-08  .151579291404D+01
    -.404193997383D-06  .947765365709D-02  .523962080479D-05  .515364752579D+04
     .511168000000D+06 -.763684511185D-07  .436073065222D+00  .122934579849D-06
     .952938070839D+00  .274156250000D+03  .366446092202D+00 -.848928218411D-08
    -.310727228751D-09  .100000000000D+01  .232000000000D+04  .000000000000D+00
     .240000000000D+01  .000000000000D+00  .465661287308D-08  .110000000000D+03
     .504000000000D+06  .400000000000D+01
13 24  6 28 21 59 44.0  .661096535623D-03  .261479726760D-11  .000000000000D+00
     .100000000000D+02 -.565625000000D+02  .465876548485D-08  .124237185144D+01
    -.284612178802D-05  .821288663428D-02  .704824924469D-05  .515365521431D+04
     .511184000000D+06 -.111758708954D-06 -.252921470088D+01  .819563865662D-07
     .971778890377D+00  .253093750000D+03  .930183338327D+00 -.824748639806D-08
    -.270725562521D-09  .100000000000D+01  .232000000000D+04  .000000000000D+00
     .240000000000D+01  .000000000000D+00 -.111758708954D-07  .100000000000D+02
     .504000000000D+06  .400000000000D+01
